<?xml version="1.0" encoding="UTF-8"?>
<ndm xmlns:xsi="http://www.w3.org/2001/XMLSchema-instance" xsi:noNamespaceSchemaLocation="https://sanaregistry.org/r/ndmxml_unqualified/ndmxml-2.0.0-master-2.0.xsd">
<omm id="CCSDS_OMM_VERS" version="2.0">
<header><CREATION_DATE/><ORIGINATOR/></header><body><segment><metadata><OBJECT_NAME>KUIPER-00053</OBJECT_NAME><OBJECT_ID>2025-134P</OBJECT_ID><CENTER_NAME>EARTH</CENTER_NAME><REF_FRAME>TEME</REF_FRAME><TIME_SYSTEM>UTC</TIME_SYSTEM><MEAN_ELEMENT_THEORY>SGP4</MEAN_ELEMENT_THEORY></metadata><data><meanElements><EPOCH>2025-07-27T12:57:37.164672</EPOCH><MEAN_MOTION>15.36527641</MEAN_MOTION><ECCENTRICITY>.0001857</ECCENTRICITY><INCLINATION>51.8773</INCLINATION><RA_OF_ASC_NODE>166.4309</RA_OF_ASC_NODE><ARG_OF_PERICENTER>205.7738</ARG_OF_PERICENTER><MEAN_ANOMALY>154.3156</MEAN_ANOMALY></meanElements><tleParameters><EPHEMERIS_TYPE>0</EPHEMERIS_TYPE><CLASSIFICATION_TYPE>U</CLASSIFICATION_TYPE><NORAD_CAT_ID>64513</NORAD_CAT_ID><ELEMENT_SET_NO>999</ELEMENT_SET_NO><REV_AT_EPOCH>648</REV_AT_EPOCH><BSTAR>.83308E-3</BSTAR><MEAN_MOTION_DOT>.29893E-3</MEAN_MOTION_DOT><MEAN_MOTION_DDOT>0</MEAN_MOTION_DDOT></tleParameters></data></segment></body></omm>
<omm id="CCSDS_OMM_VERS" version="2.0">
<header><CREATION_DATE/><ORIGINATOR/></header><body><segment><metadata><OBJECT_NAME>KUIPER-00054</OBJECT_NAME><OBJECT_ID>2025-134Q</OBJECT_ID><CENTER_NAME>EARTH</CENTER_NAME><REF_FRAME>TEME</REF_FRAME><TIME_SYSTEM>UTC</TIME_SYSTEM><MEAN_ELEMENT_THEORY>SGP4</MEAN_ELEMENT_THEORY></metadata><data><meanElements><EPOCH>2025-07-27T14:37:30.480384</EPOCH><MEAN_MOTION>15.36354051</MEAN_MOTION><ECCENTRICITY>.0002601</ECCENTRICITY><INCLINATION>51.8756</INCLINATION><RA_OF_ASC_NODE>166.1443</RA_OF_ASC_NODE><ARG_OF_PERICENTER>199.6154</ARG_OF_PERICENTER><MEAN_ANOMALY>160.4733</MEAN_ANOMALY></meanElements><tleParameters><EPHEMERIS_TYPE>0</EPHEMERIS_TYPE><CLASSIFICATION_TYPE>U</CLASSIFICATION_TYPE><NORAD_CAT_ID>64514</NORAD_CAT_ID><ELEMENT_SET_NO>999</ELEMENT_SET_NO><REV_AT_EPOCH>649</REV_AT_EPOCH><BSTAR>.84888E-3</BSTAR><MEAN_MOTION_DOT>.30298E-3</MEAN_MOTION_DOT><MEAN_MOTION_DDOT>0</MEAN_MOTION_DDOT></tleParameters></data></segment></body></omm>
<omm id="CCSDS_OMM_VERS" version="2.0">
<header><CREATION_DATE/><ORIGINATOR/></header><body><segment><metadata><OBJECT_NAME>KUIPER-00055</OBJECT_NAME><OBJECT_ID>2025-134R</OBJECT_ID><CENTER_NAME>EARTH</CENTER_NAME><REF_FRAME>TEME</REF_FRAME><TIME_SYSTEM>UTC</TIME_SYSTEM><MEAN_ELEMENT_THEORY>SGP4</MEAN_ELEMENT_THEORY></metadata><data><meanElements><EPOCH>2025-07-27T14:17:08.037888</EPOCH><MEAN_MOTION>15.36994101</MEAN_MOTION><ECCENTRICITY>.0000595</ECCENTRICITY><INCLINATION>51.8777</INCLINATION><RA_OF_ASC_NODE>166.0540</RA_OF_ASC_NODE><ARG_OF_PERICENTER>111.8796</ARG_OF_PERICENTER><MEAN_ANOMALY>248.2254</MEAN_ANOMALY></meanElements><tleParameters><EPHEMERIS_TYPE>0</EPHEMERIS_TYPE><CLASSIFICATION_TYPE>U</CLASSIFICATION_TYPE><NORAD_CAT_ID>64515</NORAD_CAT_ID><ELEMENT_SET_NO>999</ELEMENT_SET_NO><REV_AT_EPOCH>649</REV_AT_EPOCH><BSTAR>.71715E-3</BSTAR><MEAN_MOTION_DOT>.26059E-3</MEAN_MOTION_DOT><MEAN_MOTION_DDOT>0</MEAN_MOTION_DDOT></tleParameters></data></segment></body></omm>
<omm id="CCSDS_OMM_VERS" version="2.0">
<header><CREATION_DATE/><ORIGINATOR/></header><body><segment><metadata><OBJECT_NAME>KUIPER-00056</OBJECT_NAME><OBJECT_ID>2025-134S</OBJECT_ID><CENTER_NAME>EARTH</CENTER_NAME><REF_FRAME>TEME</REF_FRAME><TIME_SYSTEM>UTC</TIME_SYSTEM><MEAN_ELEMENT_THEORY>SGP4</MEAN_ELEMENT_THEORY></metadata><data><meanElements><EPOCH>2025-07-27T11:37:15.286944</EPOCH><MEAN_MOTION>15.36071696</MEAN_MOTION><ECCENTRICITY>.000302</ECCENTRICITY><INCLINATION>51.8733</INCLINATION><RA_OF_ASC_NODE>166.8022</RA_OF_ASC_NODE><ARG_OF_PERICENTER>216.8156</ARG_OF_PERICENTER><MEAN_ANOMALY>143.2623</MEAN_ANOMALY></meanElements><tleParameters><EPHEMERIS_TYPE>0</EPHEMERIS_TYPE><CLASSIFICATION_TYPE>U</CLASSIFICATION_TYPE><NORAD_CAT_ID>64516</NORAD_CAT_ID><ELEMENT_SET_NO>999</ELEMENT_SET_NO><REV_AT_EPOCH>647</REV_AT_EPOCH><BSTAR>.89158E-3</BSTAR><MEAN_MOTION_DOT>.31558E-3</MEAN_MOTION_DOT><MEAN_MOTION_DDOT>0</MEAN_MOTION_DDOT></tleParameters></data></segment></body></omm>
<omm id="CCSDS_OMM_VERS" version="2.0">
<header><CREATION_DATE/><ORIGINATOR/></header><body><segment><metadata><OBJECT_NAME>KUIPER-00057</OBJECT_NAME><OBJECT_ID>2025-134T</OBJECT_ID><CENTER_NAME>EARTH</CENTER_NAME><REF_FRAME>TEME</REF_FRAME><TIME_SYSTEM>UTC</TIME_SYSTEM><MEAN_ELEMENT_THEORY>SGP4</MEAN_ELEMENT_THEORY></metadata><data><meanElements><EPOCH>2025-07-27T12:03:48.553056</EPOCH><MEAN_MOTION>15.35101379</MEAN_MOTION><ECCENTRICITY>.0006536</ECCENTRICITY><INCLINATION>51.8699</INCLINATION><RA_OF_ASC_NODE>166.9122</RA_OF_ASC_NODE><ARG_OF_PERICENTER>228.5199</ARG_OF_PERICENTER><MEAN_ANOMALY>131.5226</MEAN_ANOMALY></meanElements><tleParameters><EPHEMERIS_TYPE>0</EPHEMERIS_TYPE><CLASSIFICATION_TYPE>U</CLASSIFICATION_TYPE><NORAD_CAT_ID>64517</NORAD_CAT_ID><ELEMENT_SET_NO>999</ELEMENT_SET_NO><REV_AT_EPOCH>647</REV_AT_EPOCH><BSTAR>.96727E-3</BSTAR><MEAN_MOTION_DOT>.33236E-3</MEAN_MOTION_DOT><MEAN_MOTION_DDOT>0</MEAN_MOTION_DDOT></tleParameters></data></segment></body></omm>
<omm id="CCSDS_OMM_VERS" version="2.0">
<header><CREATION_DATE/><ORIGINATOR/></header><body><segment><metadata><OBJECT_NAME>KUIPER-00058</OBJECT_NAME><OBJECT_ID>2025-134U</OBJECT_ID><CENTER_NAME>EARTH</CENTER_NAME><REF_FRAME>TEME</REF_FRAME><TIME_SYSTEM>UTC</TIME_SYSTEM><MEAN_ELEMENT_THEORY>SGP4</MEAN_ELEMENT_THEORY></metadata><data><meanElements><EPOCH>2025-07-27T11:48:18.146880</EPOCH><MEAN_MOTION>15.35745440</MEAN_MOTION><ECCENTRICITY>.0004465</ECCENTRICITY><INCLINATION>51.8721</INCLINATION><RA_OF_ASC_NODE>166.8477</RA_OF_ASC_NODE><ARG_OF_PERICENTER>228.4077</ARG_OF_PERICENTER><MEAN_ANOMALY>131.6527</MEAN_ANOMALY></meanElements><tleParameters><EPHEMERIS_TYPE>0</EPHEMERIS_TYPE><CLASSIFICATION_TYPE>U</CLASSIFICATION_TYPE><NORAD_CAT_ID>64518</NORAD_CAT_ID><ELEMENT_SET_NO>999</ELEMENT_SET_NO><REV_AT_EPOCH>647</REV_AT_EPOCH><BSTAR>.65417E-3</BSTAR><MEAN_MOTION_DOT>.22785E-3</MEAN_MOTION_DOT><MEAN_MOTION_DDOT>0</MEAN_MOTION_DDOT></tleParameters></data></segment></body></omm>
<omm id="CCSDS_OMM_VERS" version="2.0">
<header><CREATION_DATE/><ORIGINATOR/></header><body><segment><metadata><OBJECT_NAME>KUIPER-00059</OBJECT_NAME><OBJECT_ID>2025-134V</OBJECT_ID><CENTER_NAME>EARTH</CENTER_NAME><REF_FRAME>TEME</REF_FRAME><TIME_SYSTEM>UTC</TIME_SYSTEM><MEAN_ELEMENT_THEORY>SGP4</MEAN_ELEMENT_THEORY></metadata><data><meanElements><EPOCH>2025-07-27T14:19:48.761760</EPOCH><MEAN_MOTION>15.36912935</MEAN_MOTION><ECCENTRICITY>.0001248</ECCENTRICITY><INCLINATION>51.8778</INCLINATION><RA_OF_ASC_NODE>166.0633</RA_OF_ASC_NODE><ARG_OF_PERICENTER>152.2069</ARG_OF_PERICENTER><MEAN_ANOMALY>207.8984</MEAN_ANOMALY></meanElements><tleParameters><EPHEMERIS_TYPE>0</EPHEMERIS_TYPE><CLASSIFICATION_TYPE>U</CLASSIFICATION_TYPE><NORAD_CAT_ID>64519</NORAD_CAT_ID><ELEMENT_SET_NO>999</ELEMENT_SET_NO><REV_AT_EPOCH>649</REV_AT_EPOCH><BSTAR>.70729E-3</BSTAR><MEAN_MOTION_DOT>.25625E-3</MEAN_MOTION_DOT><MEAN_MOTION_DDOT>0</MEAN_MOTION_DDOT></tleParameters></data></segment></body></omm>
<omm id="CCSDS_OMM_VERS" version="2.0">
<header><CREATION_DATE/><ORIGINATOR/></header><body><segment><metadata><OBJECT_NAME>KUIPER-00060</OBJECT_NAME><OBJECT_ID>2025-134W</OBJECT_ID><CENTER_NAME>EARTH</CENTER_NAME><REF_FRAME>TEME</REF_FRAME><TIME_SYSTEM>UTC</TIME_SYSTEM><MEAN_ELEMENT_THEORY>SGP4</MEAN_ELEMENT_THEORY></metadata><data><meanElements><EPOCH>2025-07-27T14:26:54.071808</EPOCH><MEAN_MOTION>15.36720081</MEAN_MOTION><ECCENTRICITY>.0002021</ECCENTRICITY><INCLINATION>51.8780</INCLINATION><RA_OF_ASC_NODE>166.0975</RA_OF_ASC_NODE><ARG_OF_PERICENTER>172.1727</ARG_OF_PERICENTER><MEAN_ANOMALY>187.9291</MEAN_ANOMALY></meanElements><tleParameters><EPHEMERIS_TYPE>0</EPHEMERIS_TYPE><CLASSIFICATION_TYPE>U</CLASSIFICATION_TYPE><NORAD_CAT_ID>64520</NORAD_CAT_ID><ELEMENT_SET_NO>999</ELEMENT_SET_NO><REV_AT_EPOCH>648</REV_AT_EPOCH><BSTAR>.66839E-3</BSTAR><MEAN_MOTION_DOT>.24038E-3</MEAN_MOTION_DOT><MEAN_MOTION_DDOT>0</MEAN_MOTION_DDOT></tleParameters></data></segment></body></omm>

</ndm>
